SILVERSAT               
1 66909U 98067XV  26041.42219940  .00122301  00000+0  12816-2 0  9992
2 66909  51.6263 203.5767 0002380 260.7067  99.3658 15.63499610 10911
ISS OBJECT XW           
1 66910U 98067XW  26040.67144975  .00098201  00000+0  11031-2 0  9994
2 66910  51.6257 207.5584 0001190 285.1610  74.9252 15.61822223 10793
ISS OBJECT XX           
1 66911U 98067XX  26040.75232691  .00144596  00000+0  14448-2 0  9991
2 66911  51.6234 206.6102 0002801 282.1139  77.9542 15.64618808 10800
ISS OBJECT XY           
1 66912U 98067XY  26041.44105313  .00071984  00000+0  90483-3 0  9993
2 66912  51.6287 204.4559 0000373 197.8529 162.2451 15.59018449 10893
ISS OBJECT XZ           
1 67683U 98067XZ  26041.59641250  .00037970  00000+0  67758-3 0  9996
2 67683  51.6304 206.2386 0010878  99.3874 260.8345 15.49625607   588
GXIBA-1                 
1 67684U 98067YA  26041.59479060  .00069413  00000+0  12013-2 0  9995
2 67684  51.6305 206.2290 0012727  94.0869 266.1575 15.50204373   584
CORAL                   
1 67685U 98067YB  26041.59605457  .00042481  00000+0  75298-3 0  9998
2 67685  51.6305 206.2367 0012792  94.6356 265.6094 15.49740764   586
ISS OBJECT YC           
1 67686U 98067YC  26041.59580677  .00051261  00000+0  90424-3 0  9999
2 67686  51.6309 206.2355 0007751  71.5738 288.6093 15.49849773   589
LEOPARD                 
1 67687U 98067YD  26041.59620145  .00040355  00000+0  71847-3 0  9995
2 67687  51.6309 206.2375 0007852  73.1400 287.0449 15.49693548   505
ISS OBJECT YE           
1 67688U 98067YE  26041.53138860  .00046665  00000+0  82576-3 0  9999
2 67688  51.6310 206.5553 0007705  71.6104 288.5722 15.49802515   494
